CCSDS_OMM_VERS = 2.0
CREATION_DATE  = 
ORIGINATOR     = 

OBJECT_NAME    = KUIPER-00126
OBJECT_ID      = 2025-228J
CENTER_NAME    = EARTH
REF_FRAME      = TEME
TIME_SYSTEM    = UTC
MEAN_ELEMENT_THEORY = SGP/SGP4

EPOCH          = 2025-10-27T21:20:42.495072
MEAN_MOTION    = 15.34201603
ECCENTRICITY   = .0006057
INCLINATION    = 51.8800
RA_OF_ASC_NODE = 241.4941
ARG_OF_PERICENTER = 203.9947
MEAN_ANOMALY   = 156.0757

EPHEMERIS_TYPE = 0
CLASSIFICATION_TYPE = U
NORAD_CAT_ID   = 65955
ELEMENT_SET_NO = 999
REV_AT_EPOCH   = 337
BSTAR          = .86728E-3
MEAN_MOTION_DOT = .28894E-3
MEAN_MOTION_DDOT = 0

CCSDS_OMM_VERS = 2.0
CREATION_DATE  = 
ORIGINATOR     = 

OBJECT_NAME    = KUIPER-00127
OBJECT_ID      = 2025-228K
CENTER_NAME    = EARTH
REF_FRAME      = TEME
TIME_SYSTEM    = UTC
MEAN_ELEMENT_THEORY = SGP/SGP4

EPOCH          = 2025-10-27T21:12:27.918144
MEAN_MOTION    = 15.34790073
ECCENTRICITY   = .0006005
INCLINATION    = 51.8801
RA_OF_ASC_NODE = 241.4586
ARG_OF_PERICENTER = 181.3513
MEAN_ANOMALY   = 178.7458

EPHEMERIS_TYPE = 0
CLASSIFICATION_TYPE = U
NORAD_CAT_ID   = 65956
ELEMENT_SET_NO = 999
REV_AT_EPOCH   = 337
BSTAR          = .10036E-2
MEAN_MOTION_DOT = .34156E-3
MEAN_MOTION_DDOT = 0

CCSDS_OMM_VERS = 2.0
CREATION_DATE  = 
ORIGINATOR     = 

OBJECT_NAME    = KUIPER-00128
OBJECT_ID      = 2025-228L
CENTER_NAME    = EARTH
REF_FRAME      = TEME
TIME_SYSTEM    = UTC
MEAN_ELEMENT_THEORY = SGP/SGP4

EPOCH          = 2025-10-27T19:41:34.160928
MEAN_MOTION    = 15.34572865
ECCENTRICITY   = .0005763
INCLINATION    = 51.8801
RA_OF_ASC_NODE = 241.7876
ARG_OF_PERICENTER = 184.6421
MEAN_ANOMALY   = 175.4512

EPHEMERIS_TYPE = 0
CLASSIFICATION_TYPE = U
NORAD_CAT_ID   = 65957
ELEMENT_SET_NO = 999
REV_AT_EPOCH   = 336
BSTAR          = .97706E-3
MEAN_MOTION_DOT = .33006E-3
MEAN_MOTION_DDOT = 0

CCSDS_OMM_VERS = 2.0
CREATION_DATE  = 
ORIGINATOR     = 

OBJECT_NAME    = KUIPER-00129
OBJECT_ID      = 2025-228M
CENTER_NAME    = EARTH
REF_FRAME      = TEME
TIME_SYSTEM    = UTC
MEAN_ELEMENT_THEORY = SGP/SGP4

EPOCH          = 2025-10-27T19:41:00.694752
MEAN_MOTION    = 15.34581429
ECCENTRICITY   = .0005872
INCLINATION    = 51.8802
RA_OF_ASC_NODE = 241.7846
ARG_OF_PERICENTER = 178.9935
MEAN_ANOMALY   = 181.1064

EPHEMERIS_TYPE = 0
CLASSIFICATION_TYPE = U
NORAD_CAT_ID   = 65958
ELEMENT_SET_NO = 999
REV_AT_EPOCH   = 336
BSTAR          = .86473E-3
MEAN_MOTION_DOT = .29161E-3
MEAN_MOTION_DDOT = 0

CCSDS_OMM_VERS = 2.0
CREATION_DATE  = 
ORIGINATOR     = 

OBJECT_NAME    = KUIPER-00130
OBJECT_ID      = 2025-228N
CENTER_NAME    = EARTH
REF_FRAME      = TEME
TIME_SYSTEM    = UTC
MEAN_ELEMENT_THEORY = SGP/SGP4

EPOCH          = 2025-10-27T19:44:14.095104
MEAN_MOTION    = 15.34395515
ECCENTRICITY   = .0005221
INCLINATION    = 51.8795
RA_OF_ASC_NODE = 241.7932
ARG_OF_PERICENTER = 195.4806
MEAN_ANOMALY   = 164.6020

EPHEMERIS_TYPE = 0
CLASSIFICATION_TYPE = U
NORAD_CAT_ID   = 65959
ELEMENT_SET_NO = 999
REV_AT_EPOCH   = 336
BSTAR          = .84241E-3
MEAN_MOTION_DOT = .28223E-3
MEAN_MOTION_DDOT = 0

CCSDS_OMM_VERS = 2.0
CREATION_DATE  = 
ORIGINATOR     = 

OBJECT_NAME    = KUIPER-00134
OBJECT_ID      = 2025-228P
CENTER_NAME    = EARTH
REF_FRAME      = TEME
TIME_SYSTEM    = UTC
MEAN_ELEMENT_THEORY = SGP/SGP4

EPOCH          = 2025-10-27T21:19:20.027136
MEAN_MOTION    = 15.34290648
ECCENTRICITY   = .0005222
INCLINATION    = 51.8793
RA_OF_ASC_NODE = 241.4849
ARG_OF_PERICENTER = 200.7843
MEAN_ANOMALY   = 159.2931

EPHEMERIS_TYPE = 0
CLASSIFICATION_TYPE = U
NORAD_CAT_ID   = 65960
ELEMENT_SET_NO = 999
REV_AT_EPOCH   = 337
BSTAR          = .86421E-3
MEAN_MOTION_DOT = .28869E-3
MEAN_MOTION_DDOT = 0

CCSDS_OMM_VERS = 2.0
CREATION_DATE  = 
ORIGINATOR     = 

OBJECT_NAME    = KUIPER-00135
OBJECT_ID      = 2025-228Q
CENTER_NAME    = EARTH
REF_FRAME      = TEME
TIME_SYSTEM    = UTC
MEAN_ELEMENT_THEORY = SGP/SGP4

EPOCH          = 2025-10-27T19:44:57.534432
MEAN_MOTION    = 15.34284551
ECCENTRICITY   = .0005106
INCLINATION    = 51.8807
RA_OF_ASC_NODE = 241.8036
ARG_OF_PERICENTER = 187.9005
MEAN_ANOMALY   = 172.1901

EPHEMERIS_TYPE = 0
CLASSIFICATION_TYPE = U
NORAD_CAT_ID   = 65961
ELEMENT_SET_NO = 999
REV_AT_EPOCH   = 336
BSTAR          = .96066E-3
MEAN_MOTION_DOT = .3214E-3
MEAN_MOTION_DDOT = 0

CCSDS_OMM_VERS = 2.0
CREATION_DATE  = 
ORIGINATOR     = 

OBJECT_NAME    = KUIPER-00136
OBJECT_ID      = 2025-228R
CENTER_NAME    = EARTH
REF_FRAME      = TEME
TIME_SYSTEM    = UTC
MEAN_ELEMENT_THEORY = SGP/SGP4

EPOCH          = 2025-10-27T21:13:22.750176
MEAN_MOTION    = 15.34719811
ECCENTRICITY   = .0005826
INCLINATION    = 51.8800
RA_OF_ASC_NODE = 241.4646
ARG_OF_PERICENTER = 184.3360
MEAN_ANOMALY   = 175.7576

EPHEMERIS_TYPE = 0
CLASSIFICATION_TYPE = U
NORAD_CAT_ID   = 65962
ELEMENT_SET_NO = 999
REV_AT_EPOCH   = 337
BSTAR          = .8545E-3
MEAN_MOTION_DOT = .28939E-3
MEAN_MOTION_DDOT = 0

CCSDS_OMM_VERS = 2.0
CREATION_DATE  = 
ORIGINATOR     = 

OBJECT_NAME    = KUIPER-00137
OBJECT_ID      = 2025-228S
CENTER_NAME    = EARTH
REF_FRAME      = TEME
TIME_SYSTEM    = UTC
MEAN_ELEMENT_THEORY = SGP/SGP4

EPOCH          = 2025-10-27T19:44:21.655968
MEAN_MOTION    = 15.34367613
ECCENTRICITY   = .0005332
INCLINATION    = 51.8806
RA_OF_ASC_NODE = 241.8007
ARG_OF_PERICENTER = 194.4107
MEAN_ANOMALY   = 165.6727

EPHEMERIS_TYPE = 0
CLASSIFICATION_TYPE = U
NORAD_CAT_ID   = 65963
ELEMENT_SET_NO = 999
REV_AT_EPOCH   = 336
BSTAR          = .96996E-3
MEAN_MOTION_DOT = .32544E-3
MEAN_MOTION_DDOT = 0

CCSDS_OMM_VERS = 2.0
CREATION_DATE  = 
ORIGINATOR     = 

OBJECT_NAME    = KUIPER-00138
OBJECT_ID      = 2025-228T
CENTER_NAME    = EARTH
REF_FRAME      = TEME
TIME_SYSTEM    = UTC
MEAN_ELEMENT_THEORY = SGP/SGP4

EPOCH          = 2025-10-27T21:20:22.174656
MEAN_MOTION    = 15.34170550
ECCENTRICITY   = .00059
INCLINATION    = 51.8796
RA_OF_ASC_NODE = 241.4913
ARG_OF_PERICENTER = 207.3826
MEAN_ANOMALY   = 152.6849

EPHEMERIS_TYPE = 0
CLASSIFICATION_TYPE = U
NORAD_CAT_ID   = 65964
ELEMENT_SET_NO = 999
REV_AT_EPOCH   = 337
BSTAR          = .90841E-3
MEAN_MOTION_DOT = .30257E-3
MEAN_MOTION_DDOT = 0

CCSDS_OMM_VERS = 2.0
CREATION_DATE  = 
ORIGINATOR     = 

OBJECT_NAME    = KUIPER-00140
OBJECT_ID      = 2025-228U
CENTER_NAME    = EARTH
REF_FRAME      = TEME
TIME_SYSTEM    = UTC
MEAN_ELEMENT_THEORY = SGP/SGP4

EPOCH          = 2025-10-27T21:21:23.457312
MEAN_MOTION    = 15.34136103
ECCENTRICITY   = .0005588
INCLINATION    = 51.8804
RA_OF_ASC_NODE = 241.4989
ARG_OF_PERICENTER = 208.5988
MEAN_ANOMALY   = 151.4692

EPHEMERIS_TYPE = 0
CLASSIFICATION_TYPE = U
NORAD_CAT_ID   = 65965
ELEMENT_SET_NO = 999
REV_AT_EPOCH   = 337
BSTAR          = .8705E-3
MEAN_MOTION_DOT = .2894E-3
MEAN_MOTION_DDOT = 0

CCSDS_OMM_VERS = 2.0
CREATION_DATE  = 
ORIGINATOR     = 

OBJECT_NAME    = KUIPER-00141
OBJECT_ID      = 2025-228V
CENTER_NAME    = EARTH
REF_FRAME      = TEME
TIME_SYSTEM    = UTC
MEAN_ELEMENT_THEORY = SGP/SGP4

EPOCH          = 2025-10-27T19:42:02.890656
MEAN_MOTION    = 15.34538047
ECCENTRICITY   = .0005755
INCLINATION    = 51.8795
RA_OF_ASC_NODE = 241.7835
ARG_OF_PERICENTER = 186.7558
MEAN_ANOMALY   = 173.3351

EPHEMERIS_TYPE = 0
CLASSIFICATION_TYPE = U
NORAD_CAT_ID   = 65966
ELEMENT_SET_NO = 999
REV_AT_EPOCH   = 336
BSTAR          = .88893E-3
MEAN_MOTION_DOT = .29949E-3
MEAN_MOTION_DDOT = 0

