KUIPER-00126            
1 65955U 25228J   25300.88938073  .00028894  00000+0  86728-3 0  9999
2 65955  51.8800 241.4941 0006057 203.9947 156.0757 15.34201603  3370
KUIPER-00127            
1 65956U 25228K   25300.88365646  .00034156  00000+0  10036-2 0  9996
2 65956  51.8801 241.4586 0006005 181.3513 178.7458 15.34790073  3371
KUIPER-00128            
1 65957U 25228L   25300.82053427  .00033006  00000+0  97706-3 0  9995
2 65957  51.8801 241.7876 0005763 184.6421 175.4512 15.34572865  3362
KUIPER-00129            
1 65958U 25228M   25300.82014693  .00029161  00000+0  86473-3 0  9994
2 65958  51.8802 241.7846 0005872 178.9935 181.1064 15.34581429  3360
KUIPER-00130            
1 65959U 25228N   25300.82238536  .00028223  00000+0  84241-3 0  9998
2 65959  51.8795 241.7932 0005221 195.4806 164.6020 15.34395515  3364
KUIPER-00134            
1 65960U 25228P   25300.88842624  .00028869  00000+0  86421-3 0  9993
2 65960  51.8793 241.4849 0005222 200.7843 159.2931 15.34290648  3373
KUIPER-00135            
1 65961U 25228Q   25300.82288813  .00032140  00000+0  96066-3 0  9995
2 65961  51.8807 241.8036 0005106 187.9005 172.1901 15.34284551  3365
KUIPER-00136            
1 65962U 25228R   25300.88429109  .00028939  00000+0  85450-3 0  9993
2 65962  51.8800 241.4646 0005826 184.3360 175.7576 15.34719811  3376
KUIPER-00137            
1 65963U 25228S   25300.82247287  .00032544  00000+0  96996-3 0  9997
2 65963  51.8806 241.8007 0005332 194.4107 165.6727 15.34367613  3365
KUIPER-00138            
1 65964U 25228T   25300.88914554  .00030257  00000+0  90841-3 0  9994
2 65964  51.8796 241.4913 0005900 207.3826 152.6849 15.34170550  3373
KUIPER-00140            
1 65965U 25228U   25300.88985483  .00028940  00000+0  87050-3 0  9998
2 65965  51.8804 241.4989 0005588 208.5988 151.4692 15.34136103  3370
KUIPER-00141            
1 65966U 25228V   25300.82086679  .00029949  00000+0  88893-3 0  9998
2 65966  51.8795 241.7835 0005755 186.7558 173.3351 15.34538047  3366
